OBJECT_NAME,OBJECT_ID,EPOCH,MEAN_MOTION,ECCENTRICITY,INCLINATION,RA_OF_ASC_NODE,ARG_OF_PERICENTER,MEAN_ANOMALY,EPHEMERIS_TYPE,CLASSIFICATION_TYPE,NORAD_CAT_ID,ELEMENT_SET_NO,REV_AT_EPOCH,BSTAR,MEAN_MOTION_DOT,MEAN_MOTION_DDOT
COSMOS 2530 (RODNIK-S 16),2018-097A,2026-06-04T06:08:09.542400,12.42881206,.0020599,82.5150,230.3050,66.7279,293.5967,0,U,43751,999,34068,.83950239E-3,.126E-5,0
COSMOS 2531 (RODNIK-S 17),2018-097B,2026-06-04T06:40:41.797920,12.42912614,.00179629,82.5195,231.3452,84.8845,275.4285,0,U,43752,999,34070,.5001227E-3,.79E-6,0
COSMOS 2532 (RODNIK-S 18),2018-097C,2026-06-04T07:21:22.119264,12.42909255,.00193521,82.5140,230.1195,86.7440,273.5853,0,U,43753,999,34067,.21104868E-3,.39E-6,0
MINXSS-2,2018-099A,2026-06-04T06:43:15.577824,15.46012079,.00060489,97.4538,231.1950,311.4691,48.6038,0,U,43758,999,41213,.78247101E-3,.38251E-3,0
SIRION PATHFINDER-2,2018-099B,2026-06-04T02:23:38.952096,15.14427297,.00082861,97.4255,204.4687,356.1424,3.9743,0,U,43759,999,41064,.32068588E-3,.5832E-4,0
AISTECHSAT 2,2018-099L,2026-06-04T01:56:12.060096,15.15310571,.00043626,97.4294,203.4018,5.6147,354.5134,0,U,43768,999,41029,.36755929E-3,.6861E-4,0
FOX-1CLIFF (AO-95),2018-099N,2026-06-03T15:21:57.123072,15.26406805,.0009397,97.4392,214.9391,44.7441,315.4554,0,U,43770,999,41115,.50433E-3,.1308E-3,0
RANGE-A,2018-099R,2026-06-04T02:03:51.513696,15.13270154,.0011204,97.3965,198.0489,40.8470,319.3600,0,U,43773,999,41051,.29975051E-3,.5276E-4,0
SNUSAT-2,2018-099AA,2026-06-04T02:47:29.561568,15.21632992,.00095177,97.4062,208.7021,350.3268,9.7783,0,U,43782,999,41104,.40972675E-3,.92E-4,0
SNUGLITE,2018-099AC,2026-06-04T02:29:03.213024,15.26879137,.00022198,97.3871,209.5144,11.0960,349.0328,0,U,43784,999,41132,.51508197E-3,.13539E-3,0
ITASAT,2018-099AE,2026-06-04T02:38:24.186624,15.18882675,.00134601,97.4030,206.8836,44.7670,315.4648,0,U,43786,999,41092,.38125955E-3,.7904E-4,0
EAGLET-I,2018-099AJ,2026-06-04T02:08:33.194976,15.12835572,.00119307,97.4232,205.1051,38.2905,321.9171,0,U,43790,999,41035,.31184758E-3,.5425E-4,0
ESEO,2018-099AL,2026-06-04T01:48:53.503200,15.04200247,.0012608,97.3962,193.0259,25.5904,334.5944,0,U,43792,999,40983,.97480506E-4,.1298E-4,0
THEA,2018-099AQ,2026-06-03T04:25:43.250304,15.34519161,.00064324,97.4443,223.7455,344.9961,15.1090,0,U,43796,999,41054,.60477971E-3,.20185E-3,0
ASTROCAST 0.1,2018-099AS,2026-06-04T06:39:54.021312,15.48650576,.00041237,97.4382,233.3802,254.1593,105.9204,0,U,43798,999,41243,.74214343E-3,.39731E-3,0
JY1SAT (JO-97),2018-099AX,2026-06-04T02:38:27.913920,15.33220920,.00043048,97.4133,217.9030,327.2948,32.8027,0,U,43803,999,41162,.60140727E-3,.19257E-3,0
SUOMI-100,2018-099AY,2026-06-04T02:40:02.367264,15.28111453,.00088306,97.4190,215.5556,333.9373,26.1421,0,U,43804,999,41142,.52951877E-3,.14467E-3,0
CENTAURI-1,2018-099BD,2026-06-02T16:30:23.303808,15.16209609,.00146007,97.4225,205.7192,25.1750,335.0192,0,U,43809,999,41030,.35164987E-3,.6747E-4,0
GLOBAL-2,2018-099BG,2026-06-04T00:12:03.181824,15.08589538,.00057048,97.3556,192.0703,182.6626,177.4574,0,U,43812,999,40992,.19152385E-3,.2935E-4,0
SEAHAWK-1,2018-099BQ,2026-06-04T02:59:39.017760,15.22585065,.00078683,97.3959,207.8109,7.5414,352.5940,0,U,43820,999,41054,.40930996E-3,.945E-4,0
SAUDISAT 5A,2018-102A,2026-06-04T06:19:40.186848,15.27908949,.00099684,97.3070,217.0945,170.1556,189.9881,0,U,43831,999,41370,.24519136E-3,.6615E-4,0
SAUDISAT 5B,2018-102C,2026-06-04T06:49:58.480896,15.28172963,.00106218,97.3177,220.1613,172.9851,187.1539,0,U,43833,999,41382,.22601521E-3,.6142E-4,0
ISAT,2018-111D,2026-06-04T01:08:02.139072,15.62916943,.00033844,97.5898,89.2815,48.8726,311.2824,0,U,43879,999,40911,.10724421E-2,.97798E-3,0
UWE-4,2018-111E,2026-06-03T08:40:07.131360,15.45215882,.00082433,97.5860,82.1246,33.3192,326.8573,0,U,43880,999,40864,.73362008E-3,.349E-3,0
D-STAR ONE (SPARROW),2018-111F,2026-06-03T07:43:33.466368,15.70483668,.00053416,97.6132,93.8877,94.1599,266.0273,0,U,43881,999,40919,.11780157E-2,.146463E-2,0
JILIN-1 09,2019-005B,2026-06-04T06:44:33.327456,15.20396506,.00036041,97.4734,250.3553,120.3808,239.7784,0,U,43943,999,40718,.27359099E-3,.5893E-4,0
JILIN-1 10,2019-005E,2026-06-04T06:30:48.778560,15.25578406,.00071544,97.4778,254.0777,333.8562,26.2314,0,U,43946,999,40734,.27501265E-3,.6914E-4,0
EGYPTSAT-A (MISRSAT-A),2019-008A,2026-06-04T05:31:53.235264,14.72292892,.00011591,98.0063,220.1741,88.8533,271.2807,0,U,44047,999,39133,.2541713E-3,.1557E-4,0
