COSMOS 2530 (RODNIK-S *)
1 43751U 18097A   26155.25566600  .00000126  00000+0  83950-3 0  9990
2 43751  82.5150 230.3050 0020599  66.7279 293.5967 12.42881206340684
COSMOS 2531 (RODNIK-S *)
1 43752U 18097B   26155.27826155  .00000079  00000+0  50012-3 0  9997
2 43752  82.5195 231.3452 0017962  84.8845 275.4285 12.42912614340704
COSMOS 2532 (RODNIK-S *)
1 43753U 18097C   26155.30650601  .00000039  00000+0  21105-3 0  9990
2 43753  82.5140 230.1195 0019352  86.7440 273.5853 12.42909255340676
MINXSS-2                
1 43758U 18099A   26155.28004141  .00038251  00000+0  78247-3 0  9992
2 43758  97.4538 231.1950 0006048 311.4691  48.6038 15.46012079412134
SIRION PATHFINDER-2     
1 43759U 18099B   26155.09975639  .00005832  00000+0  32069-3 0  9992
2 43759  97.4255 204.4687 0008286 356.1424   3.9743 15.14427297410645
AISTECHSAT 2            
1 43768U 18099L   26155.08069514  .00006861  00000+0  36756-3 0  9997
2 43768  97.4294 203.4018 0004362   5.6147 354.5134 15.15310571410291
FOX-1CLIFF (AO-95)      
1 43770U 18099N   26154.64024448  .00013080  00000+0  50433-3 0  9997
2 43770  97.4392 214.9391 0009397  44.7441 315.4554 15.26406805411154
RANGE-A                 
1 43773U 18099R   26155.08601289  .00005276  00000+0  29975-3 0  9998
2 43773  97.3965 198.0489 0011204  40.8470 319.3600 15.13270154410517
SNUSAT-2                
1 43782U 18099AA  26155.11631437  .00009200  00000+0  40973-3 0  9992
2 43782  97.4062 208.7021 0009517 350.3268   9.7783 15.21632992411047
SNUGLITE                
1 43784U 18099AC  26155.10350941  .00013539  00000+0  51508-3 0  9997
2 43784  97.3871 209.5144 0002219  11.0960 349.0328 15.26879137411328
ITASAT                  
1 43786U 18099AE  26155.11000216  .00007904  00000+0  38126-3 0  9997
2 43786  97.4030 206.8836 0013460  44.7670 315.4648 15.18882675410926
EAGLET-I                
1 43790U 18099AJ  26155.08927309  .00005425  00000+0  31185-3 0  9993
2 43790  97.4232 205.1051 0011930  38.2905 321.9171 15.12835572410353
ESEO                    
1 43792U 18099AL  26155.07561925  .00001298  00000+0  97481-4 0  9998
2 43792  97.3962 193.0259 0012608  25.5904 334.5944 15.04200247409835
THEA                    
1 43796U 18099AQ  26154.18452836  .00020185  00000+0  60478-3 0  9994
2 43796  97.4443 223.7455 0006432 344.9961  15.1090 15.34519161410547
ASTROCAST 0.1           
1 43798U 18099AS  26155.27770858  .00039731  00000+0  74214-3 0  9994
2 43798  97.4382 233.3802 0004123 254.1593 105.9204 15.48650576412438
JY1SAT (JO-97)          
1 43803U 18099AX  26155.11004530  .00019257  00000+0  60141-3 0  9996
2 43803  97.4133 217.9030 0004304 327.2948  32.8027 15.33220920411628
SUOMI-100               
1 43804U 18099AY  26155.11113851  .00014467  00000+0  52952-3 0  9993
2 43804  97.4190 215.5556 0008830 333.9373  26.1421 15.28111453411429
CENTAURI-1              
1 43809U 18099BD  26153.68776972  .00006747  00000+0  35165-3 0  9996
2 43809  97.4225 205.7192 0014600  25.1750 335.0192 15.16209609410302
GLOBAL-2                
1 43812U 18099BG  26155.00837016  .00002935  00000+0  19152-3 0  9998
2 43812  97.3556 192.0703 0005704 182.6626 177.4574 15.08589538409925
SEAHAWK-1               
1 43820U 18099BQ  26155.12475715  .00009450  00000+0  40931-3 0  9992
2 43820  97.3959 207.8109 0007868   7.5414 352.5940 15.22585065410549
SAUDISAT 5A             
1 43831U 18102A   26155.26365957  .00006615  00000+0  24519-3 0  9994
2 43831  97.3070 217.0945 0009968 170.1556 189.9881 15.27908949413705
SAUDISAT 5B             
1 43833U 18102C   26155.28470464  .00006142  00000+0  22602-3 0  9994
2 43833  97.3177 220.1613 0010621 172.9851 187.1539 15.28172963413821
ISAT                    
1 43879U 18111D   26155.04724698  .00097798  00000+0  10724-2 0  9997
2 43879  97.5898  89.2815 0003384  48.8726 311.2824 15.62916943409117
UWE-4                   
1 43880U 18111E   26154.36119365  .00034900  00000+0  73362-3 0  9996
2 43880  97.5860  82.1246 0008243  33.3192 326.8573 15.45215882408648
D-STAR ONE (SPARROW)    
1 43881U 18111F   26154.32191512  .00146463  00000+0  11780-2 0  9990
2 43881  97.6132  93.8877 0005341  94.1599 266.0273 15.70483668409193
JILIN-1 09              
1 43943U 19005B   26155.28094129  .00005893  00000+0  27359-3 0  9995
2 43943  97.4734 250.3553 0003604 120.3808 239.7784 15.20396506407184
JILIN-1 10              
1 43946U 19005E   26155.27139790  .00006914  00000+0  27501-3 0  9995
2 43946  97.4778 254.0777 0007154 333.8562  26.2314 15.25578406407348
EGYPTSAT-A (MISRSAT-A)  
1 44047U 19008A   26155.23047726  .00001557  00000+0  25417-3 0  9996
2 44047  98.0063 220.1741 0001159  88.8533 271.2807 14.72292892391337
